{"features":[{"type":"Feature","properties":{"NUTS_ID":"PT11D","LEVL_CODE":3,"CNTR_CODE":"PT","NAME_LATN":"Douro","NUTS_NAME":"Douro","MOUNT_TYPE":1,"URBN_TYPE":3,"COAST_TYPE":3,"NAME_ENGL":"Portugal","NAME_FREN":"Portugal","ISO3_CODE":"PRT","SVRG_UN":"UN Member State","CAPT":"Lisbon","EU_STAT":"T","EFTA_STAT":"F","CC_STAT":"F","NAME_GERM":"Portugal"},"geometry":{"type":"MultiPolygon","coordinates":[[[[-7.365323144999934,41.44042297400006],[-7.351255650999974,41.366751916000055],[-7.285680412999966,41.332279517000075],[-7.224647012999981,41.23684055200005],[-7.10041922299996,41.24429041900004],[-7.05514760799997,41.30400285600007],[-6.82712801699995,41.20515997600006],[-6.739533009999946,41.240841680000074],[-6.689786233999939,41.20524137500007],[-6.807831004999969,41.04870260200005],[-6.929864671999951,41.02933623200005],[-7.05514760799997,40.96752502800007],[-7.151976748999971,40.92916124000004],[-7.194254528999977,41.02857413500004],[-7.36283199899998,41.01087615800003],[-7.336143581999977,40.945159326000066],[-7.415716521999968,40.90988136500005],[-7.454204033999929,40.81260797900006],[-7.527952176999975,40.86879236500005],[-7.590772554999944,40.84090466300006],[-7.689588312999945,40.86344081500005],[-7.701154063999979,40.93313464200003],[-7.915680846999976,41.019974098000034],[-7.859604085999933,41.112869903000046],[-7.896828395999933,41.16571151000005],[-7.884094415999925,41.23517607100007],[-7.90773567399998,41.302587619000064],[-7.788687670999934,41.41141040300005],[-7.605783453999948,41.40252785400003],[-7.493434562999937,41.45062965500006],[-7.422334730999978,41.516001956000025],[-7.365323144999934,41.44042297400006]]]]}}],"type":"FeatureCollection"}